SHUNTIAN                
1 44886U 19093H   26186.54469882  .00005451  00000+0  49974-3 0  9991
2 44886  97.8016 274.6136 0011912  12.5320 347.6195 14.95259509354926
ELEKTRO-L 3             
1 44903U 19095A   26186.59172069 -.00000083  00000+0  00000+0 0  9996
2 44903   0.3017  82.0160 0001615  10.5962 119.9858  1.00272267 23896
GONETS-M 14             
1 44905U 19096A   26186.64328425  .00000205  00000+0  14064-2 0  9997
2 44905  82.5225  73.1984 0014225 109.6181 250.6435 12.42871230295977
GONETS-M 15             
1 44906U 19096B   26186.67267016  .00000207  00000+0  14190-2 0  9991
2 44906  82.5245  73.6447 0015736 131.7255 228.5173 12.42872760295944
GONETS-M 16             
1 44907U 19096C   26186.61808084  .00000103  00000+0  67265-3 0  9999
2 44907  82.5191  72.6220 0010563 172.0128 188.1122 12.42892592295921
RS-44 & BREEZE-KM R/B   
1 44909U 19096E   26186.29953042  .00000031  00000+0  69228-4 0  9992
2 44909  82.5235 327.6688 0218587 102.0130 260.5561 12.79749004304668
JILIN-1 KUANFU 01       
1 45016U 20003A   26186.36720874  .00004861  00000+0  29603-3 0  9992
2 45016  97.5016 259.9683 0008512 234.0260 126.0181 15.10829742358072
XINGYUN-2 01            
1 45602U 20028A   26186.60802705  .00002045  00000+0  12309-3 0  9998
2 45602  97.4871 178.6446 0010285 132.3998 227.8105 15.11884557337623
XINGYUN-2 02            
1 45603U 20028B   26186.58993394  .00003347  00000+0  20063-3 0  9993
2 45603  97.5071 192.2587 0010065 199.1426 160.9427 15.11614436337618
HAIYANG-1D              
1 45721U 20036A   26186.60077932  .00000090  00000+0  47481-4 0  9993
2 45721  98.4561 127.8806 0004034  89.5379 270.6268 14.34179191317617
M2 PATHFINDER           
1 45727U 20037E   26186.46721292  .00003753  00000+0  27018-3 0  9991
2 45727  97.8155  17.9045 0013119  91.7951 268.4777 15.04767672328240
GAOFEN DUOMO (GFDM)     
1 45856U 20042A   26186.63569437  .00000874  00000+0  13117-3 0  9996
2 45856  97.7731 245.8506 0011557  20.7761 339.3917 14.76906628323738
ZIYUAN 3-03 (ZY 3-03)   
1 45939U 20051A   26186.60098457  .00009916  00000+0  44450-3 0  9994
2 45939  97.2818 253.7308 0002269 240.0081 120.0931 15.21418038330149
NEMO-HD                 
1 46277U 20061F   26186.59117066  .00012773  00000+0  27273-3 0  9996
2 46277  97.1905 248.3615 0001303  75.3567 284.7827 15.44990897324821
NAPA-1                  
1 46320U 20061BA  26186.65537382  .00087349  00000+0  70046-3 0  9996
2 46320  97.2440 261.4742 0001946 184.2161 175.9086 15.70754910324635
JILIN-1 GAOFEN 3E       
1 46457U 20065D   26186.38391138  .00101104  00000+0  97386-3 0  9990
2 46457  97.2219 239.4410 0011613 102.4455 257.8105 15.66124743322604
JILIN-1 GAOFEN 3F       
1 46458U 20065E   26186.57054392  .00078890  00000+0  85971-3 0  9992
2 46458  97.2176 236.8759 0012998  89.2681 271.0067 15.63047441322571
JILIN-1 GAOFEN 3G       
1 46459U 20065F   26186.40607141  .00141133  00000+0  93563-3 0  9998
2 46459  97.2237 243.8355 0004838 331.9551  28.1453 15.75076813322801
JILIN-1 GAOFEN 3H       
1 46460U 20065G   26186.42186563  .00123954  00000+0  98568-3 0  9993
2 46460  97.2179 240.0605 0004811 239.5351 120.5437 15.70831773322748
HAIYANG-2C              
1 46469U 20066A   26186.60092007 -.00000059  00000+0  19813-4 0  9990
2 46469  65.9957 169.4375 0008131 237.4656 122.5628 13.83377164292049
HJ-2A                   
1 46478U 20067A   26186.59800189  .00001613  00000+0  23841-3 0  9998
2 46478  97.8822 264.5353 0003295 184.3894 175.7288 14.76543544310972
HJ-2B                   
1 46479U 20067B   26186.56659123  .00000977  00000+0  14713-3 0  9996
2 46479  97.8886 265.5417 0001658  98.4964 261.6435 14.76583088310975
GONETS-M 17             
1 46486U 20068A   26186.64341530 -.00000052  00000+0 -44629-3 0  9999
2 46486  82.5007 336.0193 0022249 357.8479   2.2502 12.42873302261450
GONETS-M 18             
1 46487U 20068B   26186.60706578 -.00000032  00000+0 -29964-3 0  9996
2 46487  82.4960 335.1529 0019505 354.6124   5.4743 12.42874131261435
GONETS-M 19             
1 46488U 20068C   26186.66272190 -.00000034  00000+0 -31878-3 0  9990
2 46488  82.4986 335.5720 0013511  11.1244 349.0132 12.42892238261549
DEKART                  
1 46493U 20068H   26186.62451821  .00013508  00000+0  36569-3 0  9992
2 46493  97.8742 197.2197 0008178 206.9678 153.1141 15.37789113318602
NORBI                   
1 46494U 20068J   26186.56991922  .00026549  00000+0  48599-3 0  9992
2 46494  97.8624 204.1645 0007313 174.2312 185.9024 15.49298232319053
