OBJECT_NAME,OBJECT_ID,EPOCH,MEAN_MOTION,ECCENTRICITY,INCLINATION,RA_OF_ASC_NODE,ARG_OF_PERICENTER,MEAN_ANOMALY,EPHEMERIS_TYPE,CLASSIFICATION_TYPE,NORAD_CAT_ID,ELEMENT_SET_NO,REV_AT_EPOCH,BSTAR,MEAN_MOTION_DOT,MEAN_MOTION_DDOT
SHUNTIAN,2019-093H,2026-07-05T13:04:21.978048,14.95259509,.00119123,97.8016,274.6136,12.5320,347.6195,0,U,44886,999,35492,.49973867E-3,.5451E-4,0
ELEKTRO-L 3,2019-095A,2026-07-05T14:12:04.667616,1.00272267,.0001615,0.3017,82.0160,10.5962,119.9858,0,U,44903,999,2389,0,-.83E-6,0
GONETS-M 14,2019-096A,2026-07-05T15:26:19.759200,12.42871230,.0014225,82.5225,73.1984,109.6181,250.6435,0,U,44905,999,29597,.14064474E-2,.205E-5,0
GONETS-M 15,2019-096B,2026-07-05T16:08:38.701824,12.42872760,.00157365,82.5245,73.6447,131.7255,228.5173,0,U,44906,999,29594,.1419004E-2,.207E-5,0
GONETS-M 16,2019-096C,2026-07-05T14:50:02.184576,12.42892592,.00105638,82.5191,72.6220,172.0128,188.1122,0,U,44907,999,29592,.67265159E-3,.103E-5,0
RS-44 & BREEZE-KM R/B,2019-096E,2026-07-05T07:11:19.428288,12.79749003,.0218587,82.5235,327.6688,102.0130,260.5561,0,U,44909,999,30466,.69228E-4,.31E-6,0
JILIN-1 KUANFU 01,2020-003A,2026-07-05T08:48:46.835136,15.10829742,.0008513,97.5016,259.9683,234.0260,126.0181,0,U,45016,999,35807,.29603E-3,.4861E-4,0
XINGYUN-2 01,2020-028A,2026-07-05T14:35:33.537120,15.11884557,.0010285,97.4871,178.6446,132.3998,227.8105,0,U,45602,999,33762,.12309319E-3,.2045E-4,0
XINGYUN-2 02,2020-028B,2026-07-05T14:09:30.292416,15.11614436,.00100651,97.5071,192.2587,199.1426,160.9427,0,U,45603,999,33761,.20063163E-3,.3347E-4,0
HAIYANG-1D,2020-036A,2026-07-05T14:25:07.333248,14.34179191,.00040342,98.4561,127.8806,89.5379,270.6268,0,U,45721,999,31761,.4748056E-4,.9E-6,0
M2 PATHFINDER,2020-037E,2026-07-05T11:12:47.196288,15.04767671,.0013119,97.8155,17.9045,91.7951,268.4777,0,U,45727,999,32824,.27018E-3,.3753E-4,0
GAOFEN DUOMO (GFDM),2020-042A,2026-07-05T15:15:23.993568,14.76906628,.00115574,97.7731,245.8506,20.7761,339.3917,0,U,45856,999,32373,.1311661E-3,.874E-5,0
ZIYUAN 3-03 (ZY 3-03),2020-051A,2026-07-05T14:25:25.066848,15.21418038,.00022691,97.2818,253.7308,240.0081,120.0931,0,U,45939,999,33014,.44450415E-3,.9916E-4,0
NEMO-HD,2020-061F,2026-07-05T14:11:17.145024,15.44990897,.00013038,97.1905,248.3615,75.3567,284.7827,0,U,46277,999,32482,.2727306E-3,.12773E-3,0
NAPA-1,2020-061BA,2026-07-05T15:43:44.298048,15.70754910,.0001946,97.2440,261.4742,184.2161,175.9086,0,U,46320,999,32463,.70046159E-3,.87349E-3,0
JILIN-1 GAOFEN 3E,2020-065D,2026-07-05T09:12:49.943232,15.66124743,.0011613,97.2219,239.4410,102.4455,257.8105,0,U,46457,999,32260,.97386E-3,.101104E-2,0
JILIN-1 GAOFEN 3F,2020-065E,2026-07-05T13:41:34.994688,15.63047441,.00129985,97.2176,236.8759,89.2681,271.0067,0,U,46458,999,32257,.85970955E-3,.7889E-3,0
JILIN-1 GAOFEN 3G,2020-065F,2026-07-05T09:44:44.568960,15.75076813,.0004839,97.2237,243.8355,331.9551,28.1453,0,U,46459,999,32280,.93563E-3,.141133E-2,0
JILIN-1 GAOFEN 3H,2020-065G,2026-07-05T10:07:29.189568,15.70831773,.0004812,97.2179,240.0605,239.5351,120.5437,0,U,46460,999,32274,.98568E-3,.123954E-2,0
HAIYANG-2C,2020-066A,2026-07-05T14:25:19.494048,13.83377164,.00081311,65.9957,169.4375,237.4656,122.5628,0,U,46469,999,29204,.19812738E-4,-.59E-6,0
HJ-2A,2020-067A,2026-07-05T14:21:07.363296,14.76543544,.00032954,97.8822,264.5353,184.3894,175.7288,0,U,46478,999,31097,.23841145E-3,.1613E-4,0
HJ-2B,2020-067B,2026-07-05T13:35:53.482272,14.76583088,.00016589,97.8886,265.5417,98.4964,261.6435,0,U,46479,999,31097,.14712749E-3,.977E-5,0
GONETS-M 17,2020-068A,2026-07-05T15:26:31.081920,12.42873302,.00222498,82.5007,336.0193,357.8479,2.2502,0,U,46486,999,26145,-.44629398E-3,-.52E-6,0
GONETS-M 18,2020-068B,2026-07-05T14:34:10.483392,12.42874131,.00195055,82.4960,335.1529,354.6124,5.4743,0,U,46487,999,26143,-.29964364E-3,-.32E-6,0
GONETS-M 19,2020-068C,2026-07-05T15:54:19.172160,12.42892238,.00135111,82.4986,335.5720,11.1244,349.0132,0,U,46488,999,26154,-.31877971E-3,-.34E-6,0
DEKART,2020-068H,2026-07-05T14:59:18.373344,15.37789113,.00081789,97.8742,197.2197,206.9678,153.1141,0,U,46493,999,31860,.36569151E-3,.13508E-3,0
NORBI,2020-068J,2026-07-05T13:40:41.020608,15.49298232,.00073137,97.8624,204.1645,174.2312,185.9024,0,U,46494,999,31905,.48598507E-3,.26549E-3,0
